0 INTELSAT 18
1 37834U 11056A   17305.46854834 +.00000053 +00000-0 +00000-0 0  9994
2 37834 000.0135 274.9284 0002077 304.8367 169.8845 01.00270819022350
0 INTELSAT 18
1 37834U 11056A   17305.73035394 +.00000053 +00000-0 +00000-0 0  9996
2 37834 000.0129 275.3778 0002083 305.2386 263.5407 01.00270883022277
0 INTELSAT 18
1 37834U 11056A   17306.49007802 +.00000053 +00000-0 +00000-0 0  9993
2 37834 000.0111 275.6398 0002118 307.1555 175.6086 01.00271000022365
0 INTELSAT 18
1 37834U 11056A   17306.57688380 +.00000053 +00000-0 +00000-0 0  9998
2 37834 000.0109 275.9069 0002119 307.0544 206.7781 01.00271016022363
0 INTELSAT 18
1 37834U 11056A   17307.50740552  .00000053  00000-0  00000+0 0  9991
2 37834   0.0135 271.8423 0002154 314.4964 179.3031  1.00271174 22298
0 INTELSAT 18
1 37834U 11056A   17307.55948729 +.00000053 +00000-0 +00000-0 0  9993
2 37834 000.0133 273.7910 0002156 312.6317 198.0197 01.00271180022379
0 INTELSAT 18
1 37834U 11056A   17307.79771782 +.00000053 +00000-0 +00000-0 0  9992
2 37834 000.0136 271.1606 0002158 316.2653 283.0138 01.00271212022388
0 INTELSAT 18
1 37834U 11056A   17308.54638995 +.00000052 +00000-0 +00000-0 0  9993
2 37834 000.0152 274.3716 0002189 315.7423 190.5838 01.00271348022385
0 INTELSAT 18
1 37834U 11056A   17308.68382642  .00000052  00000-0  00000+0 0  9992
2 37834   0.0150 276.7015 0002190 313.8571 239.7516  1.00271370 22302
0 INTELSAT 18
1 37834U 11056A   17309.54525323 +.00000050 +00000-0 +00000-0 0  9992
2 37834 000.0173 277.1692 0002213 316.4098 187.6925 01.00271559022395
0 INTELSAT 18
1 37834U 11056A   17309.73035344  .00000050  00000-0  00000+0 0  9991
2 37834   0.0173 276.5287 0002211 317.6183 253.9431  1.00271598 22318
0 INTELSAT 18
1 37834U 11056A   17310.56936722 +.00000048 +00000-0 +00000-0 0  9992
2 37834 000.0195 284.1983 0002245 316.1755 190.5879 01.00271772022402
0 INTELSAT 18
1 37834U 11056A   17310.72479817 +.00000047 +00000-0 +00000-0 0  9996
2 37834 000.0190 283.5040 0002234 316.5717 246.9939 01.00271871022418
0 INTELSAT 18
1 37834U 11056A   17310.87341159  .00000047  00000-0  00000+0 0  9998
2 37834   0.0188 282.3724 0002233 318.0201 300.3246  1.00271902 22326
0 INTELSAT 18
1 37834U 11056A   17311.49116330  .00000045  00000-0  00000+0 0  9996
2 37834   0.0133 286.8464 0002211 318.6659 158.1707  1.00271548 22333
0 INTELSAT 18
1 37834U 11056A   17311.50920201 +.00000045 +00000-0 +00000-0 0  9999
2 37834 000.0133 286.6661 0002212 318.9739 164.5548 01.00271552022411
0 INTELSAT 18
1 37834U 11056A   17311.68382622 +.00000044 +00000-0 +00000-0 0  9996
2 37834 000.0132 286.7723 0002210 319.0427 227.4173 01.00271600022422
0 INTELSAT 18
1 37834U 11056A   17312.52757853  .00000042  00000-0  00000+0 0  9999
2 37834   0.0104 288.5348 0002167 319.2841 169.9991  1.00271791 22347
0 INTELSAT 18
1 37834U 11056A   17312.58518115 +.00000042 +00000-0 +00000-0 0  9992
2 37834 000.0104 288.0162 0002168 320.0325 190.5633 01.00271804022421
0 INTELSAT 18
1 37834U 11056A   17312.64651801 +.00000042 +00000-0 +00000-0 0  9999
2 37834 000.0104 288.0647 0002163 319.9448 212.7446 01.00271821022436
0 INTELSAT 18
1 37834U 11056A   17313.41369068  .00000040  00000-0  00000+0 0  9993
2 37834   0.0130 289.5055 0002133 318.7098 129.5083  1.00272850 22355
0 INTELSAT 18
1 37834U 11056A   17313.60155361 +.00000039 +00000-0 +00000-0 0  9992
2 37834 000.0120 288.1911 0002130 320.7303 196.6188 01.00272926022433
0 INTELSAT 18
1 37834U 11056A   17314.48521785  .00000038  00000-0  00000+0 0  9994
2 37834   0.0086 296.6242 0002097 312.3824 155.5274  1.00273246 22360
0 INTELSAT 18
1 37834U 11056A   17314.57896391 +.00000038 +00000-0 +00000-0 0  9993
2 37834 000.0088 293.3948 0002094 315.8203 189.1604 01.00273287022449
0 INTELSAT 18
1 37834U 11056A   17314.82757700 +.00000038 +00000-0 +00000-0 0  9991
2 37834 000.0088 298.5403 0002087 310.8191 278.7630 01.00273398022453
0 INTELSAT 18
1 37834U 11056A   17315.14215991 +.00000037 +00000-0 +00000-0 0  9997
2 37834 000.0044 309.3505 0002069 300.3865 031.9467 01.00273550022458
0 INTELSAT 18
1 37834U 11056A   17315.59337708  .00000036  00000-0  00000+0 0  9995
2 37834   0.0058  80.4738 0002010 161.2219 202.8423  1.00268552 22379
0 INTELSAT 18
1 37834U 11056A   17315.74897479 +.00000036 +00000-0 +00000-0 0  9999
2 37834 000.0032 080.4343 0001998 165.2880 254.9814 01.00268678022466
0 INTELSAT 18
1 37834U 11056A   17317.63799381  .00000039  00000-0  00000+0 0  9994
2 37834   0.0101 256.3867 0002371 334.1218 232.1108  1.00273096 22392
0 INTELSAT 18
1 37834U 11056A   17318.44424571  .00000041  00000-0  00000+0 0  9993
2 37834   0.0125 285.4693 0002067 323.7002 144.5017  1.00273705 22409
0 INTELSAT 18
1 37834U 11056A   17318.54007097 +.00000042 +00000-0 +00000-0 0  9996
2 37834 000.0123 285.1009 0002072 324.2164 178.9460 01.00273773022482
0 INTELSAT 18
1 37834U 11056A   17318.62754483 +.00000042 +00000-0 +00000-0 0  9993
2 37834 000.0122 285.3148 0002043 322.9146 211.6118 01.00273887022492
0 INTELSAT 18
1 37834U 11056A   17319.50809954  .00000045  00000-0  00000+0 0  9997
2 37834   0.0103 286.8332 0002005 320.7194 170.1629  1.00274271 22415
0 INTELSAT 18
1 37834U 11056A   17319.55760111 +.00000045 +00000-0 +00000-0 0  9994
2 37834 000.0103 286.8319 0001989 320.3422 188.4115 01.00274332022498
0 INTELSAT 18
1 37834U 11056A   17319.83726501 +.00000045 +00000-0 +00000-0 0  9990
2 37834 000.0107 280.5976 0001972 326.4073 289.5379 01.00274443022503
0 INTELSAT 18
1 37834U 11056A   17320.52545965 +.00000048 +00000-0 +00000-0 0  9994
2 37834 000.0129 292.5130 0001956 315.3823 177.0816 01.00274657022508
0 INTELSAT 18
1 37834U 11056A   17320.73032025  .00000048  00000-0  00000+0 0  9994
2 37834   0.0126 292.8734 0001945 315.5188 250.5386  1.00274735 22429
0 INTELSAT 18
1 37834U 11056A   17321.40170840 +.00000050 +00000-0 +00000-0 0  9991
2 37834 000.0147 292.2781 0001921 313.5372 135.4849 01.00275068022510
0 INTELSAT 18
1 37834U 11056A   17322.22654910  .00000052  00000-0  00000+0 0  9998
2 37834   0.0148 305.1904 0001784 294.6188  79.2313  1.00271001 22438
0 INTELSAT 18
1 37834U 11056A   17322.51973147 +.00000052 +00000-0 +00000-0 0  9997
2 37834 000.0170 303.1770 0001790 296.5770 185.1202 01.00271169022526
0 INTELSAT 18
1 37834U 11056A   17322.76978160 +.00000053 +00000-0 +00000-0 0  9995
2 37834 000.0157 304.7074 0001798 294.4376 275.9927 01.00271237022531
0 INTELSAT 18
1 37834U 11056A   17323.46855024  .00000054  00000-0  00000+0 0  9996
2 37834   0.0184 301.0287 0001793 298.7181 167.6345  1.00271396 22451
0 INTELSAT 18
1 37834U 11056A   17323.53092789 +.00000054 +00000-0 +00000-0 0  9996
2 37834 000.0187 302.3521 0001791 297.2649 190.2815 01.00271416022536
0 INTELSAT 18
1 37834U 11056A   17323.78012310 +.00000055 +00000-0 +00000-0 0  9996
2 37834 000.0184 306.1163 0001794 294.1926 279.5446 01.00271437022549
0 INTELSAT 18
1 37834U 11056A   17324.57094358  .00000056  00000-0  00000+0 0  9996
2 37834   0.0159 300.7328 0001803 299.9676 204.6268  1.00271682 22464
0 INTELSAT 18
1 37834U 11056A   17324.73521532 +.00000056 +00000-0 +00000-0 0  9994
2 37834 000.0179 303.3293 0001806 297.2533 264.0440 01.00271726022553
0 INTELSAT 18
1 37834U 11056A   17325.74729292  .00000057  00000-0  00000+0 0  9999
2 37834   0.0188 322.1751 0001827 279.2404 268.5560  1.00272007 22477
0 INTELSAT 18
1 37834U 11056A   17326.46438128 +.00000058 +00000-0 +00000-0 0  9996
2 37834 000.0175 328.0757 0001845 274.1754 166.5794 01.00272208022565
0 INTELSAT 18
1 37834U 11056A   17326.75739146  .00000058  00000-0  00000+0 0  9991
2 37834   0.0173 330.0532 0001862 272.3597 272.1903  1.00272279 22486
0 INTELSAT 18
1 37834U 11056A   17327.55532280 +.00000059 +00000-0 +00000-0 0  9992
2 37834 000.0164 337.3008 0001889 266.4635 198.8818 01.00272474022587
0 INTELSAT 18
1 37834U 11056A   17327.70290628 +.00000059 +00000-0 +00000-0 0  9996
2 37834 000.0164 338.5523 0001900 265.2538 252.1159 01.00272508022585
0 INTELSAT 18
1 37834U 11056A   17328.22249243  .00000059  00000-0  00000+0 0  9990
2 37834   0.0163 343.6061 0001916 260.6843  79.1956  1.00272621 22491
0 INTELSAT 18
1 37834U 11056A   17328.51834375 +.00000059 +00000-0 +00000-0 0  9999
2 37834 000.0160 347.1954 0001933 257.6052 185.4845 01.00272693022582
0 INTELSAT 18
1 37834U 11056A   17328.78167887 +.00000060 +00000-0 +00000-0 0  9997
2 37834 000.0163 351.7040 0001955 253.3884 280.2535 01.00272742022598
0 INTELSAT 18
1 37834U 11056A   17329.51157185  .00000060  00000-0  00000+0 0  9998
2 37834   0.0161   1.5484 0001987 244.4530 182.8276  1.00272893 22510
0 INTELSAT 18
1 37834U 11056A   17329.72959508 +.00000060 +00000-0 +00000-0 0  9991
2 37834 000.0161 003.0070 0002010 243.4935 261.0325 01.00272928022608
0 INTELSAT 18
1 37834U 11056A   17330.36423497  .00000061  00000-0  00000+0 0  9996
2 37834   0.0153  38.2712 0002041 209.2611 129.0988  1.00273032 22523
0 INTELSAT 18
1 37834U 11056A   17330.56646330 +.00000061 +00000-0 +00000-0 0  9992
2 37834 000.0172 045.4164 0002057 202.5991 201.6181 01.00273068022610
0 INTELSAT 18
1 37834U 11056A   17330.74172944 +.00000061 +00000-0 +00000-0 0  9997
2 37834 000.0173 045.5426 0002076 202.8900 264.4702 01.00273090022618
0 INTELSAT 18
1 37834U 11056A   17331.46716177  .00000061  00000-0  00000+0 0  9998
2 37834   0.0161 292.8170 0002007 316.0517 165.9006  1.00270854 22532
0 INTELSAT 18
1 37834U 11056A   17331.81258358 +.00000062 +00000-0 +00000-0 0  9991
2 37834 000.0154 294.3336 0002020 313.9276 291.1998 01.00271198022622
0 INTELSAT 18
1 37834U 11056A   17332.47479985  .00000062  00000-0  00000+0 0  9994
2 37834   0.0140 295.5097 0002051 313.4715 169.5285  1.00271215 22549
0 INTELSAT 18
1 37834U 11056A   17332.61712691 +.00000062 +00000-0 +00000-0 0  9995
2 37834 000.0138 296.1057 0002062 313.2038 220.5779 01.00271236022636
